[Satellite]
VERSION=1.1
NAME=ANIK F3
NICKNAME=ANIK F3
TLE1=1 31102U 07009A   17185.58379234 -.00000006  00000-0  00000-0 0  9993
TLE2=2 31102   0.0181  71.8288 0002363  19.7196 282.6674  1.00272681 13770
